{"type": "FeatureCollection", "features": [ {"type": "Feature", "properties": {"norad_id": 51444, "name": "CSG-2", "group": "resource", "lat": 1.0488163264009835, "lon": -21.18478071634372, "alt_km": 625.4227478006414, "timestamp": "2025-12-03T04:52:29.299268+00:00", "meta": {"OBJECT_NAME": "CSG-2", "OBJECT_ID": "2022-008A", "EPOCH": "2025-12-02T19:58:09.742080", "MEAN_MOTION": 14.82146437, "ECCENTRICITY": 0.0001476, "INCLINATION": 97.8808, "RA_OF_ASC_NODE": 158.3046, "ARG_OF_PERICENTER": 91.1086, "MEAN_ANOMALY": 269.0296, "EPHEMERIS_TYPE": 0, "CLASSIFICATION_TYPE": "U", "NORAD_CAT_ID": 51444, "ELEMENT_SET_NO": 999, "REV_AT_EPOCH": 20750, "BSTAR": 8.8546e-05, "MEAN_MOTION_DOT": 6.53e-06, "MEAN_MOTION_DDOT": 0}, "tle": {"line1": "1 51444U 22008A   25336.83205720  .00000653  00000+0  88546-4 0  9994", "line2": "2 51444  97.8808 158.3046 0001476  91.1086 269.0296 14.82146437207508"}}, "geometry": {"type": "Point", "coordinates": [-21.18478071634372, 1.0488163264009835]}}, {"type": "Feature", "properties": {"norad_id": 52912, "name": "GAOFEN-12 03", "group": "resource", "lat": -3.413872594683729, "lon": 44.30055122942587, "alt_km": 634.640031933166, "timestamp": "2025-12-03T04:52:29.299278+00:00", "meta": {"OBJECT_NAME": "GAOFEN-12 03", "OBJECT_ID": "2022-069A", "EPOCH": "2025-12-02T19:56:01.110624", "MEAN_MOTION": 14.79569451, "ECCENTRICITY": 0.0002322, "INCLINATION": 97.8487, "RA_OF_ASC_NODE": 224.4082, "ARG_OF_PERICENTER": 76.5031, "MEAN_ANOMALY": 283.644, "EPHEMERIS_TYPE": 0, "CLASSIFICATION_TYPE": "U", "NORAD_CAT_ID": 52912, "ELEMENT_SET_NO": 999, "REV_AT_EPOCH": 18557, "BSTAR": 0.00021851, "MEAN_MOTION_DOT": 1.585e-05, "MEAN_MOTION_DDOT": 0}, "tle": {"line1": "1 52912U 22069A   25336.83056841  .00001585  00000+0  21851-3 0  9990", "line2": "2 52912  97.8487 224.4082 0002322  76.5031 283.6440 14.79569451185571"}}, "geometry": {"type": "Point", "coordinates": [44.30055122942587, -3.413872594683729]}}, {"type": "Feature", "properties": {"norad_id": 54754, "name": "SWOT", "group": "resource", "lat": -2.459293712205313, "lon": -60.676708949703965, "alt_km": 896.4335768666433, "timestamp": "2025-12-03T04:52:29.299288+00:00", "meta": {"OBJECT_NAME": "SWOT", "OBJECT_ID": "2022-173A", "EPOCH": "2025-12-02T20:18:44.283168", "MEAN_MOTION": 14.00172298, "ECCENTRICITY": 3.05e-05, "INCLINATION": 77.6099, "RA_OF_ASC_NODE": 300.3457, "ARG_OF_PERICENTER": 139.5892, "MEAN_ANOMALY": 220.5283, "EPHEMERIS_TYPE": 0, "CLASSIFICATION_TYPE": "U", "NORAD_CAT_ID": 54754, "ELEMENT_SET_NO": 999, "REV_AT_EPOCH": 15167, "BSTAR": 5.0877e-05, "MEAN_MOTION_DOT": 7.2e-07, "MEAN_MOTION_DDOT": 0}, "tle": {"line1": "1 54754U 22173A   25336.84634587  .00000072  00000+0  50877-4 0  9993", "line2": "2 54754  77.6099 300.3457 0000305 139.5892 220.5283 14.00172298151678"}}, "geometry": {"type": "Point", "coordinates": [-60.676708949703965, -2.459293712205313]}}, {"type": "Feature", "properties": {"norad_id": 57654, "name": "GAOFEN-12 04", "group": "resource", "lat": -10.16840732717566, "lon": -105.4653896850751, "alt_km": 634.4917216050799, "timestamp": "2025-12-03T04:52:29.299298+00:00", "meta": {"OBJECT_NAME": "GAOFEN-12 04", "OBJECT_ID": "2023-123A", "EPOCH": "2025-12-02T20:48:22.087584", "MEAN_MOTION": 14.7965131, "ECCENTRICITY": 0.0001467, "INCLINATION": 97.9112, "RA_OF_ASC_NODE": 252.7745, "ARG_OF_PERICENTER": 71.2773, "MEAN_ANOMALY": 288.8598, "EPHEMERIS_TYPE": 0, "CLASSIFICATION_TYPE": "U", "NORAD_CAT_ID": 57654, "ELEMENT_SET_NO": 999, "REV_AT_EPOCH": 12359, "BSTAR": 0.0002664, "MEAN_MOTION_DOT": 1.947e-05, "MEAN_MOTION_DDOT": 0}, "tle": {"line1": "1 57654U 23123A   25336.86692231  .00001947  00000+0  26640-3 0  9995", "line2": "2 57654  97.9112 252.7745 0001467  71.2773 288.8598 14.79651310123590"}}, "geometry": {"type": "Point", "coordinates": [-105.4653896850751, -10.16840732717566]}}, {"type": "Feature", "properties": {"norad_id": 59065, "name": "PARS 1", "group": "resource", "lat": 82.4617535258907, "lon": -149.99476678647508, "alt_km": 428.21020836944444, "timestamp": "2025-12-03T04:52:29.299308+00:00", "meta": {"OBJECT_NAME": "PARS 1", "OBJECT_ID": "2024-039Q", "EPOCH": "2025-12-02T20:41:15.528192", "MEAN_MOTION": 15.406353, "ECCENTRICITY": 0.0012648, "INCLINATION": 97.4617, "RA_OF_ASC_NODE": 307.5892, "ARG_OF_PERICENTER": 101.2476, "MEAN_ANOMALY": 259.0192, "EPHEMERIS_TYPE": 0, "CLASSIFICATION_TYPE": "U", "NORAD_CAT_ID": 59065, "ELEMENT_SET_NO": 999, "REV_AT_EPOCH": 9836, "BSTAR": 0.0003735, "MEAN_MOTION_DOT": 0.00015183, "MEAN_MOTION_DDOT": 0}, "tle": {"line1": "1 59065U 24039Q   25336.86198528  .00015183  00000+0  37350-3 0  9997", "line2": "2 59065  97.4617 307.5892 0012648 101.2476 259.0192 15.40635300 98368"}}, "geometry": {"type": "Point", "coordinates": [-149.99476678647508, 82.4617535258907]}}, {"type": "Feature", "properties": {"norad_id": 59371, "name": "RESURS-P 4", "group": "resource", "lat": 5.333372266623775, "lon": 104.4113398363029, "alt_km": 473.09482625323017, "timestamp": "2025-12-03T04:52:29.299318+00:00", "meta": {"OBJECT_NAME": "RESURS-P 4", "OBJECT_ID": "2024-061A", "EPOCH": "2025-12-02T20:16:38.999712", "MEAN_MOTION": 15.3196196, "ECCENTRICITY": 0.0002195, "INCLINATION": 97.2526, "RA_OF_ASC_NODE": 283.3794, "ARG_OF_PERICENTER": 55.3559, "MEAN_ANOMALY": 304.7889, "EPHEMERIS_TYPE": 0, "CLASSIFICATION_TYPE": "U", "NORAD_CAT_ID": 59371, "ELEMENT_SET_NO": 999, "REV_AT_EPOCH": 9369, "BSTAR": 0.00021031, "MEAN_MOTION_DOT": 6.414e-05, "MEAN_MOTION_DDOT": 0}, "tle": {"line1": "1 59371U 24061A   25336.84489583  .00006414  00000+0  21031-3 0  9990", "line2": "2 59371  97.2526 283.3794 0002195  55.3559 304.7889 15.31961960 93690"}}, "geometry": {"type": "Point", "coordinates": [104.4113398363029, 5.333372266623775]}}, {"type": "Feature", "properties": {"norad_id": 59625, "name": "LEGION 1", "group": "resource", "lat": -34.49390744444198, "lon": -133.28614830102543, "alt_km": 525.77254292615, "timestamp": "2025-12-03T04:52:29.299328+00:00", "meta": {"OBJECT_NAME": "LEGION 1", "OBJECT_ID": "2024-081A", "EPOCH": "2025-12-02T18:25:40.100736", "MEAN_MOTION": 15.16319709, "ECCENTRICITY": 0.0004754, "INCLINATION": 97.5231, "RA_OF_ASC_NODE": 51.4923, "ARG_OF_PERICENTER": 356.4486, "MEAN_ANOMALY": 3.6713, "EPHEMERIS_TYPE": 0, "CLASSIFICATION_TYPE": "U", "NORAD_CAT_ID": 59625, "ELEMENT_SET_NO": 999, "REV_AT_EPOCH": 8776, "BSTAR": 0.00036186, "MEAN_MOTION_DOT": 6.949e-05, "MEAN_MOTION_DDOT": 0}, "tle": {"line1": "1 59625U 24081A   25336.76782524  .00006949  00000+0  36186-3 0  9996", "line2": "2 59625  97.5231  51.4923 0004754 356.4486   3.6713 15.16319709 87766"}}, "geometry": {"type": "Point", "coordinates": [-133.28614830102543, -34.49390744444198]}}, {"type": "Feature", "properties": {"norad_id": 59626, "name": "LEGION 2", "group": "resource", "lat": 33.76532593379341, "lon": 46.94133682301658, "alt_km": 512.7854728918564, "timestamp": "2025-12-03T04:52:29.299338+00:00", "meta": {"OBJECT_NAME": "LEGION 2", "OBJECT_ID": "2024-081B", "EPOCH": "2025-12-02T19:13:20.767584", "MEAN_MOTION": 15.16332574, "ECCENTRICITY": 0.0006287, "INCLINATION": 97.5234, "RA_OF_ASC_NODE": 51.6117, "ARG_OF_PERICENTER": 334.1361, "MEAN_ANOMALY": 25.9556, "EPHEMERIS_TYPE": 0, "CLASSIFICATION_TYPE": "U", "NORAD_CAT_ID": 59626, "ELEMENT_SET_NO": 999, "REV_AT_EPOCH": 8777, "BSTAR": 0.00033636, "MEAN_MOTION_DOT": 6.458e-05, "MEAN_MOTION_DDOT": 0}, "tle": {"line1": "1 59626U 24081B   25336.80093481  .00006458  00000+0  33636-3 0  9991", "line2": "2 59626  97.5234  51.6117 0006287 334.1361  25.9556 15.16332574 87773"}}, "geometry": {"type": "Point", "coordinates": [46.94133682301658, 33.76532593379341]}}, {"type": "Feature", "properties": {"norad_id": 60182, "name": "ALOS-4 (DAICHI-4)", "group": "resource", "lat": -56.78313018742341, "lon": -120.09382404120171, "alt_km": 638.7843284215678, "timestamp": "2025-12-03T04:52:29.299348+00:00", "meta": {"OBJECT_NAME": "ALOS-4 (DAICHI-4)", "OBJECT_ID": "2024-123A", "EPOCH": "2025-11-30T09:15:12.370176", "MEAN_MOTION": 14.79468497, "ECCENTRICITY": 0.000127, "INCLINATION": 97.9232, "RA_OF_ASC_NODE": 69.4089, "ARG_OF_PERICENTER": 105.4124, "MEAN_ANOMALY": 254.7228, "EPHEMERIS_TYPE": 0, "CLASSIFICATION_TYPE": "U", "NORAD_CAT_ID": 60182, "ELEMENT_SET_NO": 999, "REV_AT_EPOCH": 7648, "BSTAR": -8.429942e-06, "MEAN_MOTION_DOT": -1.14e-06, "MEAN_MOTION_DDOT": 0}, "tle": {"line1": "1 60182U 24123A   25334.38555984 -.00000114  00000+0 -84299-5 0  9997", "line2": "2 60182  97.9232  69.4089 0001270 105.4124 254.7228 14.79468497 76488"}}, "geometry": {"type": "Point", "coordinates": [-120.09382404120171, -56.78313018742341]}}, {"type": "Feature", "properties": {"norad_id": 60452, "name": "LEGION 3", "group": "resource", "lat": 14.185243263590834, "lon": 15.90037313230943, "alt_km": 522.4407571358361, "timestamp": "2025-12-03T04:52:29.299359+00:00", "meta": {"OBJECT_NAME": "LEGION 3", "OBJECT_ID": "2024-146A", "EPOCH": "2025-12-02T19:17:39.184800", "MEAN_MOTION": 15.15591303, "ECCENTRICITY": 0.0013732, "INCLINATION": 45.0024, "RA_OF_ASC_NODE": 3.3905, "ARG_OF_PERICENTER": 142.1902, "MEAN_ANOMALY": 217.9944, "EPHEMERIS_TYPE": 0, "CLASSIFICATION_TYPE": "U", "NORAD_CAT_ID": 60452, "ELEMENT_SET_NO": 999, "REV_AT_EPOCH": 7222, "BSTAR": 0.00037653, "MEAN_MOTION_DOT": 7.027e-05, "MEAN_MOTION_DDOT": 0}, "tle": {"line1": "1 60452U 24146A   25336.80392575  .00007027  00000+0  37653-3 0  9994", "line2": "2 60452  45.0024   3.3905 0013732 142.1902 217.9944 15.15591303 72221"}}, "geometry": {"type": "Point", "coordinates": [15.90037313230943, 14.185243263590834]}}]}